OBJECT_NAME,OBJECT_ID,EPOCH,MEAN_MOTION,ECCENTRICITY,INCLINATION,RA_OF_ASC_NODE,ARG_OF_PERICENTER,MEAN_ANOMALY,EPHEMERIS_TYPE,CLASSIFICATION_TYPE,NORAD_CAT_ID,ELEMENT_SET_NO,REV_AT_EPOCH,BSTAR,MEAN_MOTION_DOT,MEAN_MOTION_DDOT
SKYSAT-C4,2016-058B,2026-07-17T01:08:12.622848,15.49475207,.0003478,96.9161,218.5856,114.9854,245.1760,0,U,41771,999,55009,.18273E-3,.9969E-4,0
SKYSAT-C5,2016-058C,2026-07-17T02:28:48.362592,15.33734076,.0002753,97.0451,237.4000,155.5860,204.5514,0,U,41772,999,54833,.11912E-3,.3812E-4,0
SKYSAT-C2,2016-058D,2026-07-17T07:07:48.027360,15.42708898,.0001114,97.0158,219.2705,343.1238,16.9973,0,U,41773,999,54969,.15146E-3,.6528E-4,0
SKYSAT-C3,2016-058E,2026-07-17T00:54:03.865536,15.53761650,.00026234,96.8991,227.7582,130.7873,229.3610,0,U,41774,999,55074,.2266722E-3,.14444E-3,0
ALSAT-1B,2016-059C,2026-07-17T16:30:04.421088,14.72295350,.0010438,97.7750,206.1357,122.7219,237.4997,0,U,41785,999,52506,.23424E-4,.101E-5,0
PATHFINDER 1,2016-059E,2026-07-16T23:56:37.963104,14.67694301,.0029877,97.8177,195.9301,110.2471,250.1951,0,U,41787,999,52408,.53123E-4,.258E-5,0
SCATSAT 1,2016-059H,2026-07-17T02:31:36.660288,14.79589993,.00553436,98.1177,262.1782,150.4877,209.9478,0,U,41790,999,10601,.90577876E-4,.639E-5,0
GOKTURK 1A,2016-073A,2026-07-17T16:26:49.593408,14.62794011,.000141,98.1212,92.8765,81.4602,278.6760,0,U,41875,999,51328,.25008E-4,.81E-6,0
RESOURCESAT-2A,2016-074A,2026-07-17T16:29:29.608800,14.21610125,.000229,98.7519,271.9407,22.0129,338.1146,0,U,41877,999,49863,.19375E-3,.381E-5,0
CARTOSAT-2D,2017-008A,2026-07-17T17:15:35.930304,15.19294264,.0006154,97.4084,257.4521,131.5615,228.6148,0,U,41948,999,52221,.96476E-4,.1969E-4,0
SENTINEL-2B,2017-013A,2026-07-17T16:43:42.725856,14.30816001,.0001216,98.5684,273.0395,89.8862,270.2460,0,U,42063,999,48900,.7825E-4,.161E-5,0
CARTOSAT-2E,2017-036C,2026-07-17T16:06:24.537312,15.19266142,.0003498,97.4254,257.9683,178.2764,181.8483,0,U,42767,999,50277,.10883E-3,.2227E-4,0
FORMOSAT-5,2017-049A,2026-07-17T16:08:22.744608,14.50908200,.0011163,98.2245,273.3037,356.1727,3.9381,0,U,42920,999,47109,.19016E-4,.31E-6,0
SENTINEL-5P,2017-064A,2026-07-17T13:57:03.888000,14.19523419,.0001168,98.7929,140.4976,93.9787,266.1523,0,U,42969,999,45387,.23909E-4,.6E-7,0
SKYSAT-C11,2017-068A,2026-07-16T23:23:07.126656,15.59388848,.0001196,97.4385,348.1412,155.9503,204.1810,0,U,42987,999,48788,.22543E-3,.17693E-3,0
SKYSAT-C10,2017-068B,2026-07-16T21:21:43.875360,15.35136658,.00014923,97.4545,335.0424,111.5176,248.6227,0,U,42988,999,48691,.17053822E-3,.5733E-4,0
SKYSAT-C9,2017-068C,2026-07-17T08:25:06.451104,15.42246101,.0008463,97.4465,336.7357,37.8193,322.3648,0,U,42989,999,48740,.16643E-3,.7071E-4,0
SKYSAT-C8,2017-068D,2026-07-17T15:53:02.818752,15.37519551,.0001245,97.4563,335.7400,104.5664,255.5718,0,U,42990,999,48699,.15332E-3,.5558E-4,0
SKYSAT-C7,2017-068E,2026-07-17T15:45:12.930624,15.37469414,.0005532,97.4574,336.7261,12.9182,347.2203,0,U,42991,999,48705,.14807E-3,.5358E-4,0
SKYSAT-C6,2017-068F,2026-07-16T22:53:50.651808,15.34187293,.0005072,97.4611,335.8590,85.1818,275.0004,0,U,42992,999,48688,.14802E-3,.4818E-4,0
CARTOSAT-2F,2018-004A,2026-07-17T16:53:27.083616,15.19185190,.000238,97.4767,258.0379,129.0984,231.0462,0,U,43111,999,47196,.12815E-3,.2627E-4,0
GAOFEN-1 02,2018-031A,2026-07-17T17:27:44.983872,14.76472938,.0001477,98.0510,261.1669,270.8018,89.3022,0,U,43259,999,44720,.32531E-4,.175E-5,0
GAOFEN-1 03,2018-031B,2026-07-17T16:56:13.990272,14.76464290,.000221,98.0502,260.9999,8.3342,351.7904,0,U,43260,999,44719,.48712E-4,.287E-5,0
GAOFEN-1 04,2018-031D,2026-07-17T17:58:50.175840,14.76442075,.0001084,98.0511,261.2380,49.4089,310.7215,0,U,43262,999,44719,.20229E-3,.1356E-4,0
SENTINEL-3B,2018-039A,2026-07-17T04:55:36.575616,14.26736729,.0001193,98.6235,265.3046,119.8366,240.2933,0,U,43437,999,42840,.3846E-4,.49E-6,0
GAOFEN-5 01,2018-043A,2026-07-16T22:18:50.998752,14.60623956,.0001996,98.4591,170.1443,28.3067,331.8241,0,U,43461,999,43603,.36363E-4,.128E-5,0
GAOFEN-6,2018-048A,2026-07-17T16:53:54.533760,14.76385607,.0012096,98.0953,261.4119,74.2749,285.9793,0,U,43484,999,43789,.50629E-4,.3E-5,0
GAOFEN-11 01,2018-063A,2026-07-17T17:25:28.699968,15.56115151,.0003381,97.1266,265.5340,188.5824,171.5374,0,U,43585,999,44509,.12664E-3,.8746E-4,0
ICESAT-2,2018-070A,2026-07-17T16:02:42.264672,15.28201937,.000538,92.0092,299.2165,53.3259,306.8484,0,U,43613,999,43711,.1724E-3,.4739E-4,0
HYSIS,2018-096A,2026-07-17T17:32:22.519680,14.78671916,.0001785,97.9825,265.2372,82.5303,277.6111,0,U,43719,999,41193,.40825E-4,.247E-5,0
KAZSTSAT,2018-099AB,2026-07-17T12:26:14.150112,14.99957207,.0007259,97.4315,229.0803,331.4421,28.6404,0,U,43783,999,41585,.19765E-4,.19E-5,0
