SKYSAT-C4               
1 41771U 16058B   26198.04736832  .00009969  00000+0  18273-3 0  9995
2 41771  96.9161 218.5856 0003478 114.9854 245.1760 15.49475207550091
SKYSAT-C5               
1 41772U 16058C   26198.10333753  .00003812  00000+0  11912-3 0  9992
2 41772  97.0451 237.4000 0002753 155.5860 204.5514 15.33734076548335
SKYSAT-C2               
1 41773U 16058D   26198.29708365  .00006528  00000+0  15146-3 0  9998
2 41773  97.0158 219.2705 0001114 343.1238  16.9973 15.42708898549691
SKYSAT-C3               
1 41774U 16058E   26198.03754474  .00014444  00000+0  22667-3 0  9995
2 41774  96.8991 227.7582 0002623 130.7873 229.3610 15.53761650550745
ALSAT-1B                
1 41785U 16059C   26198.68755117  .00000101  00000+0  23424-4 0  9992
2 41785  97.7750 206.1357 0010438 122.7219 237.4997 14.72295350525063
PATHFINDER 1            
1 41787U 16059E   26197.99766161  .00000258  00000+0  53123-4 0  9990
2 41787  97.8177 195.9301 0029877 110.2471 250.1951 14.67694301524088
SCATSAT 1               
1 41790U 16059H   26198.10528542  .00000639  00000+0  90578-4 0  9995
2 41790  98.1177 262.1782 0055343 150.4877 209.9478 14.79589993106017
GOKTURK 1A              
1 41875U 16073A   26198.68529622  .00000081  00000+0  25008-4 0  9995
2 41875  98.1212  92.8765 0001410  81.4602 278.6760 14.62794011513284
RESOURCESAT-2A          
1 41877U 16074A   26198.68714825  .00000381  00000+0  19375-3 0  9991
2 41877  98.7519 271.9407 0002290  22.0129 338.1146 14.21610125498636
CARTOSAT-2D             
1 41948U 17008A   26198.71916586  .00001969  00000+0  96476-4 0  9991
2 41948  97.4084 257.4521 0006154 131.5615 228.6148 15.19294264522210
SENTINEL-2B             
1 42063U 17013A   26198.69702229  .00000161  00000+0  78250-4 0  9993
2 42063  98.5684 273.0395 0001216  89.8862 270.2460 14.30816001489003
CARTOSAT-2E             
1 42767U 17036C   26198.67111733  .00002227  00000+0  10883-3 0  9993
2 42767  97.4254 257.9683 0003498 178.2764 181.8483 15.19266142502779
FORMOSAT-5              
1 42920U 17049A   26198.67248547  .00000031  00000+0  19016-4 0  9991
2 42920  98.2245 273.3037 0011163 356.1727   3.9381 14.50908200471091
SENTINEL-5P             
1 42969U 17064A   26198.58129500  .00000006  00000+0  23909-4 0  9996
2 42969  98.7929 140.4976 0001168  93.9787 266.1523 14.19523419453877
SKYSAT-C11              
1 42987U 17068A   26197.97438804  .00017693  00000+0  22543-3 0  9994
2 42987  97.4385 348.1412 0001196 155.9503 204.1810 15.59388848487886
SKYSAT-C10              
1 42988U 17068B   26197.89009115  .00005733  00000+0  17054-3 0  9998
2 42988  97.4545 335.0424 0001492 111.5176 248.6227 15.35136658486918
SKYSAT-C9               
1 42989U 17068C   26198.35076911  .00007071  00000+0  16643-3 0  9999
2 42989  97.4465 336.7357 0008463  37.8193 322.3648 15.42246101487402
SKYSAT-C8               
1 42990U 17068D   26198.66183818  .00005558  00000+0  15332-3 0  9992
2 42990  97.4563 335.7400 0001245 104.5664 255.5718 15.37519551486991
SKYSAT-C7               
1 42991U 17068E   26198.65639966  .00005358  00000+0  14807-3 0  9996
2 42991  97.4574 336.7261 0005532  12.9182 347.2203 15.37469414487058
SKYSAT-C6               
1 42992U 17068F   26197.95405847  .00004818  00000+0  14802-3 0  9993
2 42992  97.4611 335.8590 0005072  85.1818 275.0004 15.34187293486889
CARTOSAT-2F             
1 43111U 18004A   26198.70378569  .00002627  00000+0  12815-3 0  9990
2 43111  97.4767 258.0379 0002380 129.0984 231.0462 15.19185190471967
GAOFEN-1 02             
1 43259U 18031A   26198.72760398  .00000175  00000+0  32531-4 0  9994
2 43259  98.0510 261.1669 0001477 270.8018  89.3022 14.76472938447206
GAOFEN-1 03             
1 43260U 18031B   26198.70571748  .00000287  00000+0  48712-4 0  9995
2 43260  98.0502 260.9999 0002210   8.3342 351.7904 14.76464290447197
GAOFEN-1 04             
1 43262U 18031D   26198.74919185  .00001356  00000+0  20229-3 0  9992
2 43262  98.0511 261.2380 0001084  49.4089 310.7215 14.76442075447196
SENTINEL-3B             
1 43437U 18039A   26198.20528444  .00000049  00000+0  38460-4 0  9994
2 43437  98.6235 265.3046 0001193 119.8366 240.2933 14.26736729428408
GAOFEN-5 01             
1 43461U 18043A   26197.92975693  .00000128  00000+0  36363-4 0  9994
2 43461  98.4591 170.1443 0001996  28.3067 331.8241 14.60623956436037
GAOFEN-6                
1 43484U 18048A   26198.70410340  .00000300  00000+0  50629-4 0  9997
2 43484  98.0953 261.4119 0012096  74.2749 285.9793 14.76385607437895
GAOFEN-11 01            
1 43585U 18063A   26198.72602662  .00008746  00000+0  12664-3 0  9996
2 43585  97.1266 265.5340 0003381 188.5824 171.5374 15.56115151445095
ICESAT-2                
1 43613U 18070A   26198.66854473  .00004739  00000+0  17240-3 0  9991
2 43613  92.0092 299.2165 0005380  53.3259 306.8484 15.28201937437115
HYSIS                   
1 43719U 18096A   26198.73081620  .00000247  00000+0  40825-4 0  9996
2 43719  97.9825 265.2372 0001785  82.5303 277.6111 14.78671916411938
KAZSTSAT                
1 43783U 18099AB  26198.51821933  .00000190  00000+0  19765-4 0  9991
2 43783  97.4315 229.0803 0007259 331.4421  28.6404 14.99957207415851
